*******************************************************************************
Ephemeris / WWW_USER Mon Jul 15 19:18:44 2024 Pasadena, USA      / Horizons    
*******************************************************************************
Target body name: (2018 YU2)                      {source: JPL#5}
Center body name: Earth (399)                     {source: DE441}
Center-site name: Gemini South Obs., Cerro Pachon
*******************************************************************************
Start time      : A.D. 2018-Nov-07 23:19:00.0000 UT      
Stop  time      : A.D. 2018-Nov-08 09:33:00.0000 UT      
Step-size       : 1 minutes
*******************************************************************************
Target pole/equ : undefined
Target radii    : undefined                                                    
Center geodetic : 289.2634, -30.2406227, 2.71233  {E-lon(deg),Lat(deg),Alt(km)}
Center cylindric: 289.2634,5517.21435,-3194.81213 {E-lon(deg),Dxy(km),Dz(km)}
Center pole/equ : ITRF93                          {East-longitude positive}
Center radii    : 6378.137, 6378.137, 6356.752 km {Equator_a, b, pole_c}       
Target primary  : Sun
Vis. interferer : MOON (R_eq= 1737.400) km        {source: DE441}
Rel. light bend : Sun                             {source: DE441}
Rel. lght bnd GM: 1.3271E+11 km^3/s^2                                          
Small-body perts: Yes                             {source: SB441-N16}
Atmos refraction: NO (AIRLESS)
RA format       : HMS
Time format     : CAL 
Calendar mode   : Mixed Julian/Gregorian
RTS-only print  : NO       
EOP file        : eop.240715.p241008                                           
EOP coverage    : DATA-BASED 1962-JAN-20 TO 2024-JUL-15. PREDICTS-> 2024-OCT-07
Units conversion: 1 au= 149597870.700 km, c= 299792.458 km/s, 1 day= 86400.0 s 
Table cut-offs 1: Elevation (-90.0deg=NO ),Airmass (>38.000=NO), Daylight (YES)
Table cut-offs 2: Solar elongation (  0.0,180.0=NO ),Local Hour Angle( 0.0=NO )
Table cut-offs 3: RA/DEC angular rate (     0.0=NO )                           
*******************************************************************************
Initial IAU76/J2000 heliocentric ecliptic osculating elements (au, days, deg.):
  EPOCH=  2458477.5 ! 2018-Dec-25.00 (TDB)         Residual RMS= .22887        
   EC= .1533598773405833   QR= .920984914841031    TP= 2458549.1486254167      
   OM= 279.4515303175068   W=  253.4059234937716   IN= 2.850769624588425       
  Equivalent ICRF heliocentric cartesian coordinates (au, au/d):
   X=-6.842297687009524E-02  Y= 9.429126817220428E-01  Z= 4.143187104036840E-01
  VX=-1.695115058702848E-02 VY=-2.997207899955317E-03 VZ=-2.239432528215744E-03
Asteroid physical parameters (km, seconds, rotational period in hours):        
   GM= n.a.                RAD= n.a.               ROTPER= n.a.                
   H= 26.5                 G= .150                 B-V= n.a.                   
                           ALBEDO= n.a.            STYP= n.a.                  
*******************************************************************************
 Date__(UT)__HR:MN     R.A._________(ICRF)_________DEC
******************************************************
$$SOE
 2018-Nov-08 03:25     06 21 06.760700 +33 54 02.45031
 2018-Nov-08 03:26     06 21 06.837643 +33 54 02.63672
 2018-Nov-08 03:27     06 21 06.914537 +33 54 02.82298
 2018-Nov-08 03:28     06 21 06.991382 +33 54 03.00910
 2018-Nov-08 03:29     06 21 07.068178 +33 54 03.19508
 2018-Nov-08 03:30     06 21 07.144926 +33 54 03.38091
 2018-Nov-08 03:31     06 21 07.221625 +33 54 03.56659
 2018-Nov-08 03:32     06 21 07.298276 +33 54 03.75212
 2018-Nov-08 03:33     06 21 07.374879 +33 54 03.93750
 2018-Nov-08 03:34     06 21 07.451433 +33 54 04.12273
 2018-Nov-08 03:35     06 21 07.527939 +33 54 04.30781
 2018-Nov-08 03:36     06 21 07.604397 +33 54 04.49273
 2018-Nov-08 03:37     06 21 07.680807 +33 54 04.67750
 2018-Nov-08 03:38     06 21 07.757169 +33 54 04.86211
 2018-Nov-08 03:39     06 21 07.833483 +33 54 05.04655
 2018-Nov-08 03:40     06 21 07.909750 +33 54 05.23084
 2018-Nov-08 03:41     06 21 07.985969 +33 54 05.41497
 2018-Nov-08 03:42     06 21 08.062140 +33 54 05.59893
 2018-Nov-08 03:43     06 21 08.138264 +33 54 05.78273
 2018-Nov-08 03:44     06 21 08.214341 +33 54 05.96636
 2018-Nov-08 03:45     06 21 08.290371 +33 54 06.14982
 2018-Nov-08 03:46     06 21 08.366353 +33 54 06.33311
 2018-Nov-08 03:47     06 21 08.442289 +33 54 06.51623
 2018-Nov-08 03:48     06 21 08.518178 +33 54 06.69919
 2018-Nov-08 03:49     06 21 08.594019 +33 54 06.88196
 2018-Nov-08 03:50     06 21 08.669815 +33 54 07.06456
 2018-Nov-08 03:51     06 21 08.745563 +33 54 07.24699
 2018-Nov-08 03:52     06 21 08.821265 +33 54 07.42924
 2018-Nov-08 03:53     06 21 08.896921 +33 54 07.61131
 2018-Nov-08 03:54     06 21 08.972531 +33 54 07.79320
 2018-Nov-08 03:55     06 21 09.048094 +33 54 07.97490
 2018-Nov-08 03:56     06 21 09.123611 +33 54 08.15643
 2018-Nov-08 03:57     06 21 09.199083 +33 54 08.33777
 2018-Nov-08 03:58     06 21 09.274508 +33 54 08.51892
 2018-Nov-08 03:59     06 21 09.349888 +33 54 08.69989
 2018-Nov-08 04:00     06 21 09.425223 +33 54 08.88066
 2018-Nov-08 04:01     06 21 09.500512 +33 54 09.06125
 2018-Nov-08 04:02     06 21 09.575755 +33 54 09.24165
 2018-Nov-08 04:03     06 21 09.650953 +33 54 09.42185
 2018-Nov-08 04:04     06 21 09.726107 +33 54 09.60186
 2018-Nov-08 04:05     06 21 09.801215 +33 54 09.78167
 2018-Nov-08 04:06     06 21 09.876278 +33 54 09.96129
 2018-Nov-08 04:07     06 21 09.951297 +33 54 10.14070
 2018-Nov-08 04:08     06 21 10.026271 +33 54 10.31992
 2018-Nov-08 04:09     06 21 10.101200 +33 54 10.49894
 2018-Nov-08 04:10     06 21 10.176085 +33 54 10.67776
 2018-Nov-08 04:11     06 21 10.250926 +33 54 10.85637
 2018-Nov-08 04:12     06 21 10.325723 +33 54 11.03477
 2018-Nov-08 04:13     06 21 10.400475 +33 54 11.21298
 2018-Nov-08 04:14     06 21 10.475184 +33 54 11.39097
 2018-Nov-08 04:15     06 21 10.549849 +33 54 11.56875
 2018-Nov-08 04:16     06 21 10.624470 +33 54 11.74633
 2018-Nov-08 04:17     06 21 10.699048 +33 54 11.92369
 2018-Nov-08 04:18     06 21 10.773583 +33 54 12.10084
 2018-Nov-08 04:19     06 21 10.848074 +33 54 12.27778
 2018-Nov-08 04:20     06 21 10.922522 +33 54 12.45450
 2018-Nov-08 04:21     06 21 10.996927 +33 54 12.63100
 2018-Nov-08 04:22     06 21 11.071289 +33 54 12.80729
 2018-Nov-08 04:23     06 21 11.145609 +33 54 12.98336
 2018-Nov-08 04:24     06 21 11.219886 +33 54 13.15920
 2018-Nov-08 04:25     06 21 11.294120 +33 54 13.33483
 2018-Nov-08 04:26     06 21 11.368312 +33 54 13.51023
 2018-Nov-08 04:27     06 21 11.442462 +33 54 13.68541
 2018-Nov-08 04:28     06 21 11.516570 +33 54 13.86036
 2018-Nov-08 04:29     06 21 11.590636 +33 54 14.03509
 2018-Nov-08 04:30     06 21 11.664661 +33 54 14.20959
 2018-Nov-08 04:31     06 21 11.738643 +33 54 14.38385
 2018-Nov-08 04:32     06 21 11.812585 +33 54 14.55789
 2018-Nov-08 04:33     06 21 11.886484 +33 54 14.73170
 2018-Nov-08 04:34     06 21 11.960343 +33 54 14.90527
 2018-Nov-08 04:35     06 21 12.034161 +33 54 15.07861
 2018-Nov-08 04:36     06 21 12.107937 +33 54 15.25171
 2018-Nov-08 04:37     06 21 12.181673 +33 54 15.42458
 2018-Nov-08 04:38     06 21 12.255369 +33 54 15.59721
 2018-Nov-08 04:39     06 21 12.329024 +33 54 15.76960
 2018-Nov-08 04:40     06 21 12.402638 +33 54 15.94175
 2018-Nov-08 04:41     06 21 12.476212 +33 54 16.11365
 2018-Nov-08 04:42     06 21 12.549747 +33 54 16.28532
 2018-Nov-08 04:43     06 21 12.623241 +33 54 16.45674
 2018-Nov-08 04:44     06 21 12.696696 +33 54 16.62792
 2018-Nov-08 04:45     06 21 12.770111 +33 54 16.79885
 2018-Nov-08 04:46     06 21 12.843487 +33 54 16.96953
 2018-Nov-08 04:47     06 21 12.916823 +33 54 17.13996
 2018-Nov-08 04:48     06 21 12.990120 +33 54 17.31014
 2018-Nov-08 04:49     06 21 13.063379 +33 54 17.48008
 2018-Nov-08 04:50     06 21 13.136598 +33 54 17.64976
 2018-Nov-08 04:51     06 21 13.209779 +33 54 17.81918
 2018-Nov-08 04:52     06 21 13.282921 +33 54 17.98836
 2018-Nov-08 04:53     06 21 13.356025 +33 54 18.15727
 2018-Nov-08 04:54     06 21 13.429091 +33 54 18.32593
 2018-Nov-08 04:55     06 21 13.502119 +33 54 18.49434
 2018-Nov-08 04:56     06 21 13.575108 +33 54 18.66248
 2018-Nov-08 04:57     06 21 13.648061 +33 54 18.83036
 2018-Nov-08 04:58     06 21 13.720975 +33 54 18.99798
 2018-Nov-08 04:59     06 21 13.793852 +33 54 19.16534
 2018-Nov-08 05:00     06 21 13.866692 +33 54 19.33244
 2018-Nov-08 05:01     06 21 13.939495 +33 54 19.49927
 2018-Nov-08 05:02     06 21 14.012261 +33 54 19.66583
 2018-Nov-08 05:03     06 21 14.084990 +33 54 19.83213
 2018-Nov-08 05:04     06 21 14.157683 +33 54 19.99816
 2018-Nov-08 05:05     06 21 14.230339 +33 54 20.16392
 2018-Nov-08 05:06     06 21 14.302959 +33 54 20.32941
 2018-Nov-08 05:07     06 21 14.375543 +33 54 20.49463
 2018-Nov-08 05:08     06 21 14.448091 +33 54 20.65958
 2018-Nov-08 05:09     06 21 14.520603 +33 54 20.82426
 2018-Nov-08 05:10     06 21 14.593080 +33 54 20.98866
 2018-Nov-08 05:11     06 21 14.665521 +33 54 21.15278
 2018-Nov-08 05:12     06 21 14.737927 +33 54 21.31663
 2018-Nov-08 05:13     06 21 14.810298 +33 54 21.48020
 2018-Nov-08 05:14     06 21 14.882634 +33 54 21.64349
 2018-Nov-08 05:15     06 21 14.954936 +33 54 21.80650
 2018-Nov-08 05:16     06 21 15.027202 +33 54 21.96923
 2018-Nov-08 05:17     06 21 15.099435 +33 54 22.13168
 2018-Nov-08 05:18     06 21 15.171633 +33 54 22.29385
 2018-Nov-08 05:19     06 21 15.243797 +33 54 22.45573
 2018-Nov-08 05:20     06 21 15.315927 +33 54 22.61733
 2018-Nov-08 05:21     06 21 15.388024 +33 54 22.77864
 2018-Nov-08 05:22     06 21 15.460087 +33 54 22.93966
 2018-Nov-08 05:23     06 21 15.532117 +33 54 23.10040
 2018-Nov-08 05:24     06 21 15.604113 +33 54 23.26085
 2018-Nov-08 05:25     06 21 15.676077 +33 54 23.42100
 2018-Nov-08 05:26     06 21 15.748008 +33 54 23.58087
 2018-Nov-08 05:27     06 21 15.819906 +33 54 23.74045
